NORAD_CAT_ID,OBJECT_NAME,OBJECT_TYPE,EPOCH,MEAN_MOTION,ECCENTRICITY,INCLINATION,RA_OF_ASC_NODE,ARG_OF_PERICENTER,MEAN_ANOMALY,BSTAR,MEAN_MOTION_DOT,MEAN_MOTION_DDOT,TLE_LINE0,TLE_LINE1,TLE_LINE2,SEMIMAJOR_AXIS,PERIOD,APOGEE,PERIGEE,DECAYED
50204.0,STARLINK-3254,PAYLOAD,2023-12-16 02:38:21,15.08836056,0.0001696,53.2185,295.9259,104.4298,255.6882,2.28e-05,7.5e-07,0.0,0 STARLINK-3254,1 50204U 21125BA  23350.10997280  .00000075  00000-0  22800-4 0  9999,2 50204  53.2185 295.9259 0001696 104.4298 255.6882 15.08836056110682,6917.892,95.438,540.931,538.584,0.0
50204.0,STARLINK-3254,PAYLOAD,2023-12-16 04:13:44,15.08837018,0.0001656,53.2186,295.6297,87.5995,272.5187,3.9568e-05,3.42e-06,0.0,0 STARLINK-3254,1 50204U 21125BA  23350.17621337  .00000342  00000-0  39568-4 0  9999,2 50204  53.2186 295.6297 0001656  87.5995 272.5187 15.08837018113827,6917.89,95.438,540.9,538.609,0.0
50204.0,STARLINK-3254,PAYLOAD,2023-12-17 02:29:08,15.08841252,0.0001745,53.218,291.4638,76.6953,283.4233,7.979e-06,-1.61e-06,0.0,0 STARLINK-3254,1 50204U 21125BA  23351.10357428 -.00000161  00000-0  79790-5 0  9992,2 50204  53.2180 291.4638 0001745  76.6953 283.4233 15.08841252113969,6917.877,95.437,540.949,538.534,0.0
50204.0,STARLINK-3254,PAYLOAD,2023-12-18 02:19:54,15.08861915,0.0001923,53.2182,287.0106,71.1663,288.9537,0.00046518,7.127e-05,0.0,0 STARLINK-3254,1 50204U 21125BA  23352.09716215  .00007127  00000-0  46518-3 0  9992,2 50204  53.2182 287.0106 0001923  71.1663 288.9537 15.08861915110982,6917.813,95.436,541.009,538.348,0.0
50204.0,STARLINK-3254,PAYLOAD,2023-12-19 02:10:42,15.08840824,0.0001235,53.2166,282.5396,105.6222,254.4906,-9.352e-05,-1.776e-05,0.0,0 STARLINK-3254,1 50204U 21125BA  23353.09076537 -.00001776  00000-0 -93520-4 0  9991,2 50204  53.2166 282.5396 0001235 105.6222 254.4906 15.08840824111137,6917.878,95.438,540.597,538.889,0.0
50204.0,STARLINK-3254,PAYLOAD,2023-12-20 02:01:29,15.08849322,0.0001232,53.2163,278.0801,99.4458,260.6673,-0.00020472,-3.545e-05,0.0,0 STARLINK-3254,1 50204U 21125BA  23354.08436398 -.00003545  00000-0 -20472-3 0  9997,2 50204  53.2163 278.0801 0001232  99.4458 260.6673 15.08849322114419,6917.852,95.437,540.569,538.865,0.0
50204.0,STARLINK-3254,PAYLOAD,2023-12-20 22:41:30,15.08843234,0.0001161,53.2163,274.2143,95.0888,265.0236,0.00024873,3.673e-05,0.0,0 STARLINK-3254,1 50204U 21125BA  23354.94548785  .00003673  00000-0  24873-3 0  9995,2 50204  53.2163 274.2143 0001161  95.0888 265.0236 15.08843234114540,6917.871,95.437,540.539,538.932,0.0
50204.0,STARLINK-3254,PAYLOAD,2023-12-21 00:16:53,15.08846251,0.0001177,53.2166,273.9167,93.0378,267.0749,0.00029685,4.44e-05,0.0,0 STARLINK-3254,1 50204U 21125BA  23355.01172659  .00004440  00000-0  29685-3 0  9996,2 50204  53.2166 273.9167 0001177  93.0378 267.0749 15.08846251114558,6917.861,95.437,540.541,538.912,0.0
50204.0,STARLINK-3254,PAYLOAD,2023-12-21 22:32:17,15.0883895,0.0001313,53.2164,269.7535,82.3926,277.7215,-1.2853e-05,-4.92e-06,0.0,0 STARLINK-3254,1 50204U 21125BA  23355.93909084 -.00000492  00000-0 -12853-4 0  9992,2 50204  53.2164 269.7535 0001313  82.3926 277.7215 15.08838950114698,6917.884,95.438,540.657,538.84,0.0
50204.0,STARLINK-3254,PAYLOAD,2023-12-22 00:07:40,15.08839366,0.0001306,53.2165,269.4563,83.3524,276.7617,1.9315e-05,2e-07,0.0,0 STARLINK-3254,1 50204U 21125BA  23356.00533180  .00000020  00000-0  19315-4 0  9996,2 50204  53.2165 269.4563 0001306  83.3524 276.7617 15.08839366111575,6917.882,95.438,540.651,538.844,0.0
50204.0,STARLINK-3254,PAYLOAD,2023-12-22 22:23:04,15.08833517,0.0001553,53.2169,265.2941,104.0442,256.0723,0.00019907,2.881e-05,0.0,0 STARLINK-3254,1 50204U 21125BA  23356.93269597  .00002881  00000-0  19907-3 0  9999,2 50204  53.2169 265.2941 0001553 104.0442 256.0723 15.08833517114841,6917.9,95.438,540.84,538.691,0.0
50204.0,STARLINK-3254,PAYLOAD,2023-12-23 03:09:13,15.08851976,0.000142,53.2164,264.3998,93.5338,266.5816,0.00029488,4.41e-05,0.0,0 STARLINK-3254,1 50204U 21125BA  23357.13140652  .00004410  00000-0  29488-3 0  9997,2 50204  53.2164 264.3998 0001420  93.5338 266.5816 15.08851976111741,6917.844,95.437,540.691,538.726,0.0
50204.0,STARLINK-3254,PAYLOAD,2023-12-23 17:27:42,15.08836689,0.000156,53.2166,261.7243,93.2608,266.8563,0.00011734,1.58e-05,0.0,0 STARLINK-3254,1 50204U 21125BA  23357.72757615  .00001580  00000-0  11734-3 0  9995,2 50204  53.2166 261.7243 0001560  93.2608 266.8563 15.08836689111835,6917.891,95.438,540.835,538.676,0.0
50204.0,STARLINK-3254,PAYLOAD,2023-12-23 22:13:51,15.08840157,0.0001963,53.2167,260.8306,114.0506,246.0692,0.00014552,2.029e-05,0.0,0 STARLINK-3254,1 50204U 21125BA  23357.92629394  .00002029  00000-0  14552-3 0  9999,2 50204  53.2167 260.8306 0001963 114.0506 246.0692 15.08840157114990,6917.88,95.438,541.103,538.387,0.0
50204.0,STARLINK-3254,PAYLOAD,2023-12-24 01:24:38,15.08841494,0.0001688,53.217,260.2391,85.4959,274.6226,0.00024414,3.6e-05,0.0,0 STARLINK-3254,1 50204U 21125BA  23358.05877675  .00003600  00000-0  24414-3 0  9995,2 50204  53.2170 260.2391 0001688  85.4959 274.6226 15.08841494115018,6917.876,95.437,540.909,538.573,0.0
50204.0,STARLINK-3254,PAYLOAD,2023-12-24 17:18:25,15.08903446,0.0001169,53.2168,257.264,110.8268,249.2849,0.00087428,0.00013678,0.0,0 STARLINK-3254,1 50204U 21125BA  23358.72113321  .00013678  00000-0  87428-3 0  9990,2 50204  53.2168 257.2640 0001169 110.8268 249.2849 15.08903446111985,6917.686,95.434,540.36,538.743,0.0
50204.0,STARLINK-3254,PAYLOAD,2023-12-24 22:04:36,15.0883722,0.0001587,53.2165,256.3701,100.9998,259.1172,-0.00049513,-8.159e-05,0.0,0 STARLINK-3254,1 50204U 21125BA  23358.91987085 -.00008159  00000-0 -49513-3 0  9990,2 50204  53.2165 256.3701 0001587 100.9998 259.1172 15.08837220115141,6917.889,95.438,540.852,538.656,0.0
50204.0,STARLINK-3254,PAYLOAD,2023-12-25 02:50:46,15.0883342,0.0001467,53.2164,255.4793,93.5981,266.5179,-0.00050533,-8.32e-05,0.0,0 STARLINK-3254,1 50204U 21125BA  23359.11859246 -.00008320  00000-0 -50533-3 0  9994,2 50204  53.2164 255.4793 0001467  93.5981 266.5179 15.08833420112040,6917.901,95.438,540.78,538.751,0.0
50204.0,STARLINK-3254,PAYLOAD,2023-12-25 21:55:25,15.08821838,0.0001638,53.2166,251.9112,84.969,275.1489,-0.00041593,-6.898e-05,0.0,0 STARLINK-3254,1 50204U 21125BA  23359.91348550 -.00006898  00000-0 -41593-3 0  9997,2 50204  53.2166 251.9112 0001638  84.9690 275.1489 15.08821838115299,6917.936,95.439,540.934,538.668,0.0
50204.0,STARLINK-3254,PAYLOAD,2023-12-26 02:41:34,15.08829465,0.0001472,53.2166,251.018,100.9813,259.1344,-0.00017187,-3.021e-05,0.0,0 STARLINK-3254,1 50204U 21125BA  23360.11220668 -.00003021  00000-0 -17187-3 0  9997,2 50204  53.2166 251.0180 0001472 100.9813 259.1344 15.08829465115327,6917.913,95.438,540.796,538.759,0.0
50204.0,STARLINK-3254,PAYLOAD,2023-12-26 20:10:50,15.08821267,0.0001594,53.2162,247.7475,99.0386,261.0786,0.00034896,5.267e-05,0.0,0 STARLINK-3254,1 50204U 21125BA  23360.84085904  .00005267  00000-0  34896-3 0  9997,2 50204  53.2162 247.7475 0001594  99.0386 261.0786 15.08821267112309,6917.938,95.439,540.905,538.7,0.0
50204.0,STARLINK-3254,PAYLOAD,2023-12-26 21:46:13,15.08824138,0.0001631,53.2155,247.4512,95.0484,265.0694,0.00044155,6.743e-05,0.0,0 STARLINK-3254,1 50204U 21125BA  23360.90710078  .00006743  00000-0  44155-3 0  9990,2 50204  53.2155 247.4512 0001631  95.0484 265.0694 15.08824138115447,6917.929,95.439,540.922,538.666,0.0
50204.0,STARLINK-3254,PAYLOAD,2023-12-27 02:32:22,15.08834231,0.0001681,53.2157,246.5583,94.5881,265.5303,0.0006102,9.435e-05,0.0,0 STARLINK-3254,1 50204U 21125BA  23361.10582079  .00009435  00000-0  61020-3 0  9992,2 50204  53.2157 246.5583 0001681  94.5881 265.5303 15.08834231112340,6917.898,95.438,540.926,538.6,0.0
50204.0,STARLINK-3254,PAYLOAD,2023-12-27 21:37:00,15.08840616,0.0001743,53.216,242.9895,99.011,261.108,0.00045259,6.922e-05,0.0,0 STARLINK-3254,1 50204U 21125BA  23361.90070220  .00006922  00000-0  45259-3 0  9994,2 50204  53.2160 242.9895 0001743  99.0110 261.1080 15.08840616115592,6917.879,95.438,540.949,538.538,0.0
50204.0,STARLINK-3254,PAYLOAD,2023-12-28 02:23:10,15.08834985,0.0001892,53.2166,242.1055,41.0512,319.0622,0.00037441,5.675e-05,0.0,0 STARLINK-3254,1 50204U 21125BA  23362.09942606  .00005675  00000-0  37441-3 0  9999,2 50204  53.2166 242.1055 0001892  41.0512 319.0622 15.08834985112499,6917.896,95.438,541.07,538.452,0.0
50204.0,STARLINK-3254,PAYLOAD,2023-12-28 19:52:25,15.08826583,0.0001403,53.2151,238.827,93.5246,266.5906,2.1851e-05,6e-07,0.0,0 STARLINK-3254,1 50204U 21125BA  23362.82807412  .00000060  00000-0  21851-4 0  9997,2 50204  53.2151 238.8270 0001403  93.5246 266.5906 15.08826583112607,6917.921,95.438,540.757,538.816,0.0
50204.0,STARLINK-3254,PAYLOAD,2023-12-28 21:27:48,15.08827504,0.000146,53.215,238.53,92.6756,267.4403,2.9153e-05,1.76e-06,0.0,0 STARLINK-3254,1 50204U 21125BA  23362.89431416  .00000176  00000-0  29153-4 0  9992,2 50204  53.2150 238.5300 0001460  92.6756 267.4403 15.08827504115740,6917.919,95.438,540.794,538.774,0.0
50204.0,STARLINK-3254,PAYLOAD,2023-12-29 00:38:35,15.088307,0.0001571,53.2158,237.9352,97.1653,262.9518,0.00012648,1.725e-05,0.0,0 STARLINK-3254,1 50204U 21125BA  23363.02679448  .00001725  00000-0  12648-3 0  9998,2 50204  53.2158 237.9352 0001571  97.1653 262.9518 15.08830700115768,6917.909,95.438,540.861,538.687,0.0
50204.0,STARLINK-3254,PAYLOAD,2023-12-29 19:43:12,15.08849725,0.0001399,53.215,234.3675,100.4727,259.6423,0.00049712,7.635e-05,0.0,0 STARLINK-3254,1 50204U 21125BA  23363.82167108  .00007635  00000-0  49712-3 0  9999,2 50204  53.2150 234.3675 0001399 100.4727 259.6423 15.08849725112758,6917.851,95.437,540.683,538.748,0.0
50204.0,STARLINK-3254,PAYLOAD,2023-12-29 21:18:35,15.0885273,0.000141,53.2145,234.07,105.5314,254.5834,0.00067517,0.00010477,0.0,0 STARLINK-3254,1 50204U 21125BA  23363.88791102  .00010477  00000-0  67517-3 0  9993,2 50204  53.2145 234.0700 0001410 105.5314 254.5834 15.08852730115898,6917.841,95.437,540.682,538.731,0.0
